{
  "type": "FeatureCollection",
  "features": [
    {
      "type": "Feature",
      "properties": {
        "norad_id": 31498,
        "name": "FENGYUN 1C DEB",
        "group": "fengyun-1c-debris",
        "lat": 50.19962941280387,
        "lon": -41.941658244862516,
        "alt_km": 893.2482598009719,
        "timestamp": "2025-12-24T05:51:19.891464+00:00",
        "meta_object_name": "FENGYUN 1C DEB",
        "meta_object_id": "1999-025BWM",
        "meta_epoch": "2025-12-20T21:23:31.452864",
        "meta_mean_motion": 13.77022887,
        "meta_eccentricity": 0.0219158,
        "meta_inclination": 98.4859,
        "meta_ra_of_asc_node": 325.3849,
        "meta_arg_of_pericenter": 122.8448,
        "meta_mean_anomaly": 239.4012,
        "meta_ephemeris_type": 0,
        "meta_classification_type": "U",
        "meta_norad_cat_id": 31498,
        "meta_element_set_no": 999,
        "meta_rev_at_epoch": 92846,
        "meta_bstar": 0.0012225,
        "meta_mean_motion_dot": 1.406e-05,
        "meta_mean_motion_ddot": 0,
        "tle_line1": "1 31498U 99025BWM 25354.89133626  .00001406  00000+0  12225-2 0  9991",
        "tle_line2": "2 31498  98.4859 325.3849 0219158 122.8448 239.4012 13.77022887928464"
      },
      "geometry": {
        "type": "Point",
        "coordinates": [
          -41.941658244862516,
          50.19962941280387
        ]
      }
    },
    {
      "type": "Feature",
      "properties": {
        "norad_id": 31503,
        "name": "FENGYUN 1C DEB",
        "group": "fengyun-1c-debris",
        "lat": 53.93529255883171,
        "lon": -148.14676889528405,
        "alt_km": 816.6182030078326,
        "timestamp": "2025-12-24T05:51:19.891476+00:00",
        "meta_object_name": "FENGYUN 1C DEB",
        "meta_object_id": "1999-025BWS",
        "meta_epoch": "2025-12-23T21:09:21.266496",
        "meta_mean_motion": 14.22635113,
        "meta_eccentricity": 0.00489058,
        "meta_inclination": 100.0985,
        "meta_ra_of_asc_node": 225.603,
        "meta_arg_of_pericenter": 155.2657,
        "meta_mean_anomaly": 205.0876,
        "meta_ephemeris_type": 0,
        "meta_classification_type": "U",
        "meta_norad_cat_id": 31503,
        "meta_element_set_no": 999,
        "meta_rev_at_epoch": 64405,
        "meta_bstar": 0.0009491405,
        "meta_mean_motion_dot": 2.094e-05,
        "meta_mean_motion_ddot": 0,
        "tle_line1": "1 31503U 99025BWS 25357.88149614  .00002094  00000+0  94914-3 0  9994",
        "tle_line2": "2 31503 100.0985 225.6030 0048905 155.2657 205.0876 14.22635113644057"
      },
      "geometry": {
        "type": "Point",
        "coordinates": [
          -148.14676889528405,
          53.93529255883171
        ]
      }
    },
    {
      "type": "Feature",
      "properties": {
        "norad_id": 31507,
        "name": "FENGYUN 1C DEB",
        "group": "fengyun-1c-debris",
        "lat": -81.65210899507063,
        "lon": 109.25762865565946,
        "alt_km": 780.3479655725432,
        "timestamp": "2025-12-24T05:51:19.891486+00:00",
        "meta_object_name": "FENGYUN 1C DEB",
        "meta_object_id": "1999-025BWW",
        "meta_epoch": "2025-12-23T21:08:47.974848",
        "meta_mean_motion": 14.52212021,
        "meta_eccentricity": 0.01173617,
        "meta_inclination": 98.1924,
        "meta_ra_of_asc_node": 29.8638,
        "meta_arg_of_pericenter": 44.1365,
        "meta_mean_anomaly": 132.5122,
        "meta_ephemeris_type": 0,
        "meta_classification_type": "U",
        "meta_norad_cat_id": 31507,
        "meta_element_set_no": 999,
        "meta_rev_at_epoch": 98182,
        "meta_bstar": 0.00046588118,
        "meta_mean_motion_dot": 2.02e-05,
        "meta_mean_motion_ddot": 0,
        "tle_line1": "1 31507U 99025BWW 25357.88111082  .00002020  00000+0  46588-3 0  9999",
        "tle_line2": "2 31507  98.1924  29.8638 0117361  44.1365 132.5122 14.52212021981823"
      },
      "geometry": {
        "type": "Point",
        "coordinates": [
          109.25762865565946,
          -81.65210899507063
        ]
      }
    },
    {
      "type": "Feature",
      "properties": {
        "norad_id": 31508,
        "name": "FENGYUN 1C DEB",
        "group": "fengyun-1c-debris",
        "lat": 24.892970138557317,
        "lon": 103.27579132885288,
        "alt_km": 686.0556749937659,
        "timestamp": "2025-12-24T05:51:19.891496+00:00",
        "meta_object_name": "FENGYUN 1C DEB",
        "meta_object_id": "1999-025BWX",
        "meta_epoch": "2025-12-22T06:07:52.254624",
        "meta_mean_motion": 14.62716626,
        "meta_eccentricity": 0.00341369,
        "meta_inclination": 98.626,
        "meta_ra_of_asc_node": 105.2382,
        "meta_arg_of_pericenter": 295.1567,
        "meta_mean_anomaly": 64.6094,
        "meta_ephemeris_type": 0,
        "meta_classification_type": "U",
        "meta_norad_cat_id": 31508,
        "meta_element_set_no": 999,
        "meta_rev_at_epoch": 97063,
        "meta_bstar": 0.0030278047,
        "meta_mean_motion_dot": 0.00015531,
        "meta_mean_motion_ddot": 0,
        "tle_line1": "1 31508U 99025BWX 25356.25546591  .00015531  00000+0  30278-2 0  9996",
        "tle_line2": "2 31508  98.6260 105.2382 0034136 295.1567  64.6094 14.62716626970638"
      },
      "geometry": {
        "type": "Point",
        "coordinates": [
          103.27579132885288,
          24.892970138557317
        ]
      }
    },
    {
      "type": "Feature",
      "properties": {
        "norad_id": 31509,
        "name": "FENGYUN 1C DEB",
        "group": "fengyun-1c-debris",
        "lat": 29.780963229837642,
        "lon": -57.53425215573818,
        "alt_km": 790.5476797951969,
        "timestamp": "2025-12-24T05:51:19.891507+00:00",
        "meta_object_name": "FENGYUN 1C DEB",
        "meta_object_id": "1999-025BWY",
        "meta_epoch": "2025-12-23T01:35:19.212576",
        "meta_mean_motion": 13.94955418,
        "meta_eccentricity": 0.02044345,
        "meta_inclination": 99.0233,
        "meta_ra_of_asc_node": 116.0959,
        "meta_arg_of_pericenter": 190.5651,
        "meta_mean_anomaly": 169.1184,
        "meta_ephemeris_type": 0,
        "meta_classification_type": "U",
        "meta_norad_cat_id": 31509,
        "meta_element_set_no": 999,
        "meta_rev_at_epoch": 94106,
        "meta_bstar": 0.0020319011,
        "meta_mean_motion_dot": 3.211e-05,
        "meta_mean_motion_ddot": 0,
        "tle_line1": "1 31509U 99025BWY 25357.06619459  .00003211  00000+0  20319-2 0  9998",
        "tle_line2": "2 31509  99.0233 116.0959 0204434 190.5651 169.1184 13.94955418941060"
      },
      "geometry": {
        "type": "Point",
        "coordinates": [
          -57.53425215573818,
          29.780963229837642
        ]
      }
    },
    {
      "type": "Feature",
      "properties": {
        "norad_id": 31510,
        "name": "FENGYUN 1C DEB",
        "group": "fengyun-1c-debris",
        "lat": 67.4285209220262,
        "lon": -24.08250704333146,
        "alt_km": 820.6553143556794,
        "timestamp": "2025-12-24T05:51:19.891518+00:00",
        "meta_object_name": "FENGYUN 1C DEB",
        "meta_object_id": "1999-025BWZ",
        "meta_epoch": "2025-12-20T19:32:19.154112",
        "meta_mean_motion": 14.24579723,
        "meta_eccentricity": 0.0036702,
        "meta_inclination": 98.5531,
        "meta_ra_of_asc_node": 353.8036,
        "meta_arg_of_pericenter": 307.7687,
        "meta_mean_anomaly": 180.91,
        "meta_ephemeris_type": 0,
        "meta_classification_type": "U",
        "meta_norad_cat_id": 31510,
        "meta_element_set_no": 999,
        "meta_rev_at_epoch": 96602,
        "meta_bstar": 0.00036270315,
        "meta_mean_motion_dot": 8.05e-06,
        "meta_mean_motion_ddot": 0,
        "tle_line1": "1 31510U 99025BWZ 25354.81411058  .00000805  00000+0  36270-3 0  9995",
        "tle_line2": "2 31510  98.5531 353.8036 0036702 307.7687 180.9100 14.24579723966023"
      },
      "geometry": {
        "type": "Point",
        "coordinates": [
          -24.08250704333146,
          67.4285209220262
        ]
      }
    },
    {
      "type": "Feature",
      "properties": {
        "norad_id": 31511,
        "name": "FENGYUN 1C DEB",
        "group": "fengyun-1c-debris",
        "lat": -27.69304670025939,
        "lon": -17.47252858613468,
        "alt_km": 727.5228380964372,
        "timestamp": "2025-12-24T05:51:19.891530+00:00",
        "meta_object_name": "FENGYUN 1C DEB",
        "meta_object_id": "1999-025BXA",
        "meta_epoch": "2025-12-23T05:20:38.964480",
        "meta_mean_motion": 14.28136983,
        "meta_eccentricity": 0.01093994,
        "meta_inclination": 99.0665,
        "meta_ra_of_asc_node": 166.2748,
        "meta_arg_of_pericenter": 196.6559,
        "meta_mean_anomaly": 163.1017,
        "meta_ephemeris_type": 0,
        "meta_classification_type": "U",
        "meta_norad_cat_id": 31511,
        "meta_element_set_no": 999,
        "meta_rev_at_epoch": 95950,
        "meta_bstar": 0.0012359357,
        "meta_mean_motion_dot": 3.231e-05,
        "meta_mean_motion_ddot": 0,
        "tle_line1": "1 31511U 99025BXA 25357.22267320  .00003231  00000+0  12359-2 0  9992",
        "tle_line2": "2 31511  99.0665 166.2748 0109399 196.6559 163.1017 14.28136983959506"
      },
      "geometry": {
        "type": "Point",
        "coordinates": [
          -17.47252858613468,
          -27.69304670025939
        ]
      }
    }
  ]
}